[{"OBJECT_NAME":"STARLINK-33745","OBJECT_ID":"2025-087T","EPOCH":"2026-03-09T16:42:51.117408","MEAN_MOTION":15.30197417,"ECCENTRICITY":9.605e-5,"INCLINATION":53.1584,"RA_OF_ASC_NODE":219.3082,"ARG_OF_PERICENTER":67.1879,"MEAN_ANOMALY":292.9223,"EPHEMERIS_TYPE":0,"CLASSIFICATION_TYPE":"U","NORAD_CAT_ID":63714,"ELEMENT_SET_NO":999,"REV_AT_EPOCH":4920,"BSTAR":0.00099012332,"MEAN_MOTION_DOT":0.00029078,"MEAN_MOTION_DDOT":0},{"OBJECT_NAME":"CZ-2C R\/B","OBJECT_ID":"2024-218A","EPOCH":"2026-03-09T22:16:31.791072","MEAN_MOTION":15.22960743,"ECCENTRICITY":0.00453409,"INCLINATION":97.5416,"RA_OF_ASC_NODE":83.973,"ARG_OF_PERICENTER":359.5317,"MEAN_ANOMALY":0.5869,"EPHEMERIS_TYPE":0,"CLASSIFICATION_TYPE":"U","NORAD_CAT_ID":62078,"ELEMENT_SET_NO":999,"REV_AT_EPOCH":7134,"BSTAR":0.00039378379,"MEAN_MOTION_DOT":9.445e-5,"MEAN_MOTION_DDOT":0}]
